#dP2020  9 18  0  0  0.00000000      97 __u+U IGS14 FIT  IAC
## 2123 432000.00000000   900.00000000 59110 0.0000000000000
+  118   C02C03C04C05C06C07C08C09C10C11C12C13C14C16C19C20C21
+        C22C23C24C25C26C27C28C29C30C32C33C34C35C36C37C38C39
+        C40C43C44C45C46E01E02E03E04E05E07E08E09E11E12E13E14
+        E15E18E19E21E24E25E26E27E30E31E33E36G01G02G03G04G05
+        G06G07G08G09G10G11G12G13G15G16G17G18G19G20G21G22G24
+        G25G26G27G28G29G30G31G32J01J02J03R01R02R03R04R05R07
+        R08R11R12R13R14R15R16R17R18R19R20R21R22R23R24R26  0
++         0  0  0  0  0  0  0  0  0  0  0  0  0  0  0  0  0
++         0  0  0  0  0  0  0  0  0  0  0  0  0  0  0  0  0
++         0  0  0  0  0  4  4  4  4  4  4  4  4  4  4  4  4
++         4  4  4  4  4  4  4  4  4  4  4  5  3  3  3  4  3
++         3  3  3  3  3  3  3  4  3  3  3  3  3  3  3  3  3
++         3  3  3  3  3  3  3  3  9 10 10  6  5  5  5  5  5
++         5  5  5  6  5  5  6  5  5  6  6  5  6  5  5  8  0
%c M  cc GPS ccc cccc cccc cccc cccc ccccc ccccc ccccc ccccc
%c cc cc ccc ccc cccc cccc cccc cccc ccccc ccccc ccccc ccccc
%f  1.2500000  1.025000000  0.00000000000  0.000000000000000
%f  0.0000000  0.000000000  0.00000000000  0.000000000000000
%i    0    0    0    0      0      0      0      0         0
%i    0    0    0    0      0      0      0      0         0
/* INFORMATION & ANALYSIS CENTER (IAC)            FINAL DATA
/* S/V CLOCKS ARE ALIGNED TO GNSS TIME                      
/* G:C1WC2W R:C1PC2P E:C1XC5X C:C2IC6I J:C1CC2S             
/* PCV:IGS14_2118 OL/AL:FES2004  NONE     YN ORB:CoN CLK:CoN
*  2020 09 18  8 15  0.00000000
PC02      0.000000      0.000000      0.000000 999999.999999
PC03      0.000000      0.000000      0.000000 999999.999999
PC04      0.000000      0.000000      0.000000 999999.999999
PC05      0.000000      0.000000      0.000000 999999.999999
PC06      0.000000      0.000000      0.000000 999999.999999
PC07      0.000000      0.000000      0.000000 999999.999999
PC08      0.000000      0.000000      0.000000 999999.999999
PC09      0.000000      0.000000      0.000000 999999.999999
PC10      0.000000      0.000000      0.000000 999999.999999
PC11      0.000000      0.000000      0.000000 999999.999999
PC12      0.000000      0.000000      0.000000 999999.999999
PC13      0.000000      0.000000      0.000000 999999.999999
PC14      0.000000      0.000000      0.000000 999999.999999
PC16      0.000000      0.000000      0.000000 999999.999999
PC19      0.000000      0.000000      0.000000 999999.999999
PC20      0.000000      0.000000      0.000000 999999.999999
PC21      0.000000      0.000000      0.000000 999999.999999
PC22      0.000000      0.000000      0.000000 999999.999999
PC23      0.000000      0.000000      0.000000 999999.999999
PC24      0.000000      0.000000      0.000000 999999.999999
PC25      0.000000      0.000000      0.000000 999999.999999
PC26      0.000000      0.000000      0.000000 999999.999999
PC27      0.000000      0.000000      0.000000 999999.999999
PC28      0.000000      0.000000      0.000000 999999.999999
PC29      0.000000      0.000000      0.000000 999999.999999
PC30      0.000000      0.000000      0.000000 999999.999999
PC32      0.000000      0.000000      0.000000 999999.999999
PC33      0.000000      0.000000      0.000000 999999.999999
PC34      0.000000      0.000000      0.000000 999999.999999
PC35      0.000000      0.000000      0.000000 999999.999999
PC36      0.000000      0.000000      0.000000 999999.999999
PC37      0.000000      0.000000      0.000000 999999.999999
PC38      0.000000      0.000000      0.000000 999999.999999
PC39      0.000000      0.000000      0.000000 999999.999999
PC40      0.000000      0.000000      0.000000 999999.999999
PC43      0.000000      0.000000      0.000000 999999.999999
PC44      0.000000      0.000000      0.000000 999999.999999
PC45      0.000000      0.000000      0.000000 999999.999999
PC46      0.000000      0.000000      0.000000 999999.999999
PE01  -1733.570289  17749.617682 -23614.160105   -943.210074
PE02   1613.342783 -17731.518932  23656.256278    162.491023
PE03  -8877.605271 -22376.190859 -17239.031391   -344.137966
PE04  23163.984564  18419.636553    438.978951   -609.466135
PE05  10825.165335 -13250.998417 -24154.673952   -345.142076
PE07 -24044.890838  -3536.473774  16910.478594   -437.531855
PE08 -23394.532898 -18148.913107   -189.968581   6119.004128
PE09  23941.217022   3349.558775 -17068.105177   5927.111511
PE11  16555.947122  -4872.850698  24038.134708   5593.466938
PE12  11561.556482  17546.138794  20848.167101   5599.780553
PE13 -16465.281147   4627.243283 -24156.815791    403.743884
PE14 -20893.634918 -19983.773981  -7077.508956  -1159.910214
PE15 -11647.138958 -17326.100056 -20983.266217    852.047334
PE18  11145.080425  24426.340567  -5217.653694  -1267.514058
PE19   6802.161615  21884.543376  18735.192212     81.381697
PE21 -20714.834692  17257.939838 -12212.663983   -622.046619
PE24  28102.891682  -6218.439492  -6947.424872   5237.968628
PE25  20810.641980 -17224.266494  12112.140216   -516.801653
PE26 -11581.599573  24134.597189 -12616.811966   2713.021696
PE27 -28083.665567   6655.610936   6580.839981    131.673680
PE30 -18440.114266  -8290.684140  21617.602401   3575.310908
PE31  18920.787389   7774.555248 -21376.624528   -474.207626
PE33    -10.019364  29085.398707   5486.819175   -462.753976
PE36  11608.830354 -23855.293584  13135.384195    505.938745
PG01  14345.250888 -20443.466858   8302.027369     35.890037
PG02 -15697.661798   1476.639215 -20730.676002   -518.015200
PG03  18317.419269 -12708.714349 -14440.451206   -302.332919
PG04   7859.702231 -14144.955171 -21047.207781   -137.175354
PG05 -26268.896021   1444.340458  -4490.019450    -21.367772
PG06  -9141.576128 -14117.395038 -20494.188894   -326.634616
PG07   4185.337959 -24858.725776   7847.150871   -375.000331
PG08  15520.184002  -4010.210335  21234.312572    -48.395199
PG09  -3530.520323 -21489.165608 -15251.112338   -287.729363
PG10  12043.668262  12409.221817  20315.739491   -457.614284
PG11  12717.639964 -14215.457419  18141.963964   -161.111026
PG12 -20240.750654  10674.177757 -13586.916936     65.684001
PG13 -18185.215078  -5772.039908  18398.576977     46.386903
PG15 -15178.585609   6449.103496  20542.045830   -202.882933
PG16  26721.030439    155.387985  -2349.600990   -210.664283
PG17 -14934.391553 -21991.866936    489.068491    327.579252
PG18  -4242.016873  24803.396599   8415.274910    292.289750
PG19 -17690.843347 -18442.925971  -7652.275189   -103.342891
PG20   -624.562943  16234.581431  20899.703192    526.699030
PG21  16055.397572    700.395958  21875.193094     48.400422
PG22  23238.736826 -10654.955629  -6713.376283   -753.200232
PG24 -14751.195828  18694.109657  11149.339931    -18.683104
PG25  -8851.803423  15293.959069 -19985.811526     50.782600
PG26  21618.325419   6501.856547 -14209.277896    280.774407
PG27  19814.427097   7756.874729  15961.133160   -398.324068
PG28 -12207.289091 -13061.394634  20174.588317    677.491043
PG29   -515.812953  19938.940948 -17557.024081   -197.221699
PG30  -3480.659009 -21007.624260  15789.152818   -303.926680
PG31  10890.551196  12073.151744 -20966.102505    -69.438587
PG32  16895.102206  20596.890562   -480.465198    347.686298
PJ01 -27840.206589  22283.069102  27444.193916   -346.220792
PJ02 -36102.851432  20986.852167  -1293.625182     -3.852907
PJ03 -20055.308318  24051.336271 -23645.237584     -1.210090
PR01   3449.003716  12690.816118  21850.289530     67.744395
PR02  21213.573610  12482.546266   6844.844441    446.112685
PR03  22872.004440   4100.167808 -10544.710289     22.234258
PR04  11445.079749  -6344.027650 -21875.091214     54.963200
PR05  -6306.337586 -13253.466728 -20850.114958     57.774902
PR07 -22611.659976  -3677.817073  11204.395672    -40.190661
PR08 -11466.923273   6487.564678  21887.282763    -54.624165
PR11 -17980.841067  17281.736803  -5461.673792    -38.060341
PR12  -5537.380457  15785.301649 -19215.417012    164.742029
PR13  10611.934085   5348.170270 -22577.588513    -44.022004
PR14  20652.775801  -8344.105543 -12393.887179     55.663313
PR15  18476.927405 -16950.057884   4707.334552    106.982243
PR16   4551.973653 -15804.760288  19528.376190     -6.431083
PR17  10722.416312    915.544152  23129.919612    359.086325
PR18   6343.167005 -16464.629397  18413.688744     49.777381
PR19   -496.905857 -25133.068936   4373.359652   -111.677343
PR20  -8406.508438 -19030.993477 -14731.810056   -422.060089
PR21 -10540.056651    109.277283 -23232.048961   -152.978952
PR22  -5888.979909  17534.727358 -17624.555489    -73.422201
PR23   4286.355063  24957.011251   3022.388488    332.742539
PR24   9100.841085  18367.915841  15178.539502     13.717019
PR26  -7172.613815 -22332.496955 -10059.052445   -361.465249
EOF
